start=new Date('2022-11-09T00:00:00.000Z').valueOf();
sats=[{"MEAN_ANOMALY":"303.5408","DECAY_DATE":null,"COUNTRY_CODE":"US","ECCENTRICITY":"0.00021850","CENTER_NAME":"EARTH","REF_FRAME":"TEME","MEAN_MOTION_DOT":"0.00002417","MEAN_MOTION":"15.06401909","NORAD_CAT_ID":"47825","PERIAPSIS":"545.695","LAUNCH_DATE":"2021-03-11","RA_OF_ASC_NODE":"314.7313","MEAN_ELEMENT_THEORY":"SGP4","PERIOD":"95.592","BSTAR":"0.00018110000000","EPHEMERIS_TYPE":"0","MEAN_MOTION_DDOT":"0.0000000000000","TIME_SYSTEM":"UTC","SEMIMAJOR_AXIS":"6925.343","TLE_LINE2":"2 47825  53.0535 314.7313 0002185  56.5790 303.5408 15.06401909 93177","GP_ID":"217200968","INCLINATION":"53.0535","TLE_LINE1":"1 47825U 21018AQ  22312.74002533  .00002417  00000-0  18110-3 0  9990","REV_AT_EPOCH":"9317","FILE":"3649076","RCS_SIZE":"LARGE","SITE":"AFETR","OBJECT_NAME":"STARLINK-2410","CLASSIFICATION_TYPE":"U","EPOCH":"2022-11-08T17:45:38.188512","APOAPSIS":"548.721","OBJECT_ID":"2021-018AQ","ARG_OF_PERICENTER":"56.5790","ELEMENT_SET_NO":"999","OBJECT_TYPE":"PAYLOAD"},{"MEAN_ANOMALY":"318.7409","COUNTRY_CODE":"US","DECAY_DATE":null,"ECCENTRICITY":"0.00023270","CENTER_NAME":"EARTH","REF_FRAME":"TEME","NORAD_CAT_ID":"47826","PERIAPSIS":"545.590","LAUNCH_DATE":"2021-03-11","RA_OF_ASC_NODE":"316.5306","MEAN_MOTION_DOT":"0.00002470","MEAN_MOTION":"15.06403898","MEAN_MOTION_DDOT":"0.0000000000000","SEMIMAJOR_AXIS":"6925.337","TIME_SYSTEM":"UTC","MEAN_ELEMENT_THEORY":"SGP4","PERIOD":"95.592","BSTAR":"0.00018466000000","EPHEMERIS_TYPE":"0","TLE_LINE2":"2 47826  53.0563 316.5306 0002327  41.3756 318.7409 15.06403898 93115","GP_ID":"217170420","TLE_LINE1":"1 47826U 21018AR  22312.33825305  .00002470  00000-0  18466-3 0  9999","REV_AT_EPOCH":"9311","INCLINATION":"53.0563","FILE":"3648805","SITE":"AFETR","OBJECT_NAME":"STARLINK-2411","CLASSIFICATION_TYPE":"U","EPOCH":"2022-11-08T08:07:05.063520","RCS_SIZE":"LARGE","ELEMENT_SET_NO":"999","OBJECT_TYPE":"PAYLOAD","APOAPSIS":"548.813","OBJECT_ID":"2021-018AR","ARG_OF_PERICENTER":"41.3756"},{"MEAN_ELEMENT_THEORY":"SGP4","BSTAR":"0.00008831200000","EPHEMERIS_TYPE":"0","PERIOD":"95.591","MEAN_MOTION_DDOT":"0.0000000000000","SEMIMAJOR_AXIS":"6925.273","TIME_SYSTEM":"UTC","MEAN_MOTION":"15.06424529","MEAN_MOTION_DOT":"0.00001035","PERIAPSIS":"545.923","NORAD_CAT_ID":"47827","RA_OF_ASC_NODE":"305.0461","LAUNCH_DATE":"2021-03-11","CENTER_NAME":"EARTH","REF_FRAME":"TEME","DECAY_DATE":null,"COUNTRY_CODE":"US","ECCENTRICITY":"0.00017550","MEAN_ANOMALY":"304.0756","OBJECT_ID":"2021-018AS","APOAPSIS":"548.354","ARG_OF_PERICENTER":"56.0399","ELEMENT_SET_NO":"999","OBJECT_TYPE":"PAYLOAD","RCS_SIZE":"LARGE","EPOCH":"2022-11-08T17:15:08.005824","OBJECT_NAME":"STARLINK-2413","CLASSIFICATION_TYPE":"U","SITE":"AFETR","GP_ID":"217199967","FILE":"3649076","REV_AT_EPOCH":"9336","TLE_LINE1":"1 47827U 21018AS  22312.71884266  .00001035  00000-0  88312-4 0  9997","INCLINATION":"53.0559","TLE_LINE2":"2 47827  53.0559 305.0461 0001755  56.0399 304.0756 15.06424529 93360"},{"RCS_SIZE":"LARGE","SITE":"AFETR","OBJECT_NAME":"STARLINK-2415","EPOCH":"2022-11-08T07:44:31.368192","CLASSIFICATION_TYPE":"U","APOAPSIS":"548.708","OBJECT_ID":"2021-018AT","ARG_OF_PERICENTER":"43.9496","ELEMENT_SET_NO":"999","OBJECT_TYPE":"PAYLOAD","TLE_LINE2":"2 47828  53.0559 326.5998 0002143  43.9496 316.1663 15.06396606 92970","GP_ID":"217169926","TLE_LINE1":"1 47828U 21018AT  22312.32258528  .00005839  00000-0  41061-3 0  9996","REV_AT_EPOCH":"9297","INCLINATION":"53.0559","FILE":"3648805","MEAN_MOTION_DOT":"0.00005839","MEAN_MOTION":"15.06396606","NORAD_CAT_ID":"47828","PERIAPSIS":"545.740","LAUNCH_DATE":"2021-03-11","RA_OF_ASC_NODE":"326.5998","MEAN_ELEMENT_THEORY":"SGP4","PERIOD":"95.592","EPHEMERIS_TYPE":"0","BSTAR":"0.00041061000000","MEAN_MOTION_DDOT":"0.0000000000000","SEMIMAJOR_AXIS":"6925.359","TIME_SYSTEM":"UTC","MEAN_ANOMALY":"316.1663","DECAY_DATE":null,"COUNTRY_CODE":"US","ECCENTRICITY":"0.00021430","CENTER_NAME":"EARTH","REF_FRAME":"TEME"},{"TLE_LINE2":"2 47829  53.0557 324.7252 0001996  47.7421 312.3737 15.06407921 93027","FILE":"3649076","TLE_LINE1":"1 47829U 21018AU  22312.73909693  .00001553  00000-0  12311-3 0  9993","INCLINATION":"53.0557","REV_AT_EPOCH":"9302","GP_ID":"217201462","OBJECT_NAME":"STARLINK-2416","CLASSIFICATION_TYPE":"U","EPOCH":"2022-11-08T17:44:17.974752","SITE":"AFETR","RCS_SIZE":"MEDIUM","OBJECT_TYPE":"PAYLOAD","ELEMENT_SET_NO":"999","ARG_OF_PERICENTER":"47.7421","OBJECT_ID":"2021-018AU","APOAPSIS":"548.572","DECAY_DATE":null,"COUNTRY_CODE":"US","ECCENTRICITY":"0.00019960","MEAN_ANOMALY":"312.3737","REF_FRAME":"TEME","CENTER_NAME":"EARTH","RA_OF_ASC_NODE":"324.7252","LAUNCH_DATE":"2021-03-11","PERIAPSIS":"545.807","NORAD_CAT_ID":"47829","MEAN_MOTION":"15.06407921","MEAN_MOTION_DOT":"0.00001553","TIME_SYSTEM":"UTC","SEMIMAJOR_AXIS":"6925.324","MEAN_MOTION_DDOT":"0.0000000000000","BSTAR":"0.00012311000000","EPHEMERIS_TYPE":"0","PERIOD":"95.592","MEAN_ELEMENT_THEORY":"SGP4"},{"MEAN_MOTION_DDOT":"0.0000000000000","SEMIMAJOR_AXIS":"6925.289","TIME_SYSTEM":"UTC","MEAN_ELEMENT_THEORY":"SGP4","PERIOD":"95.591","EPHEMERIS_TYPE":"0","BSTAR":"0.00038550000000","NORAD_CAT_ID":"47830","PERIAPSIS":"545.666","LAUNCH_DATE":"2021-03-11","RA_OF_ASC_NODE":"324.7470","MEAN_MOTION_DOT":"0.00005468","MEAN_MOTION":"15.06419275","CENTER_NAME":"EARTH","REF_FRAME":"TEME","MEAN_ANOMALY":"314.9107","DECAY_DATE":null,"ECCENTRICITY":"0.00021490","COUNTRY_CODE":"US","OBJECT_TYPE":"PAYLOAD","ELEMENT_SET_NO":"999","APOAPSIS":"548.643","OBJECT_ID":"2021-018AV","ARG_OF_PERICENTER":"45.2056","SITE":"AFETR","CLASSIFICATION_TYPE":"U","OBJECT_NAME":"STARLINK-2419","EPOCH":"2022-11-08T17:38:59.124192","RCS_SIZE":"LARGE","GP_ID":"217201202","INCLINATION":"53.0542","TLE_LINE1":"1 47830U 21018AV  22312.73540653  .00005468  00000-0  38550-3 0  9994","REV_AT_EPOCH":"9302","FILE":"3649076","TLE_LINE2":"2 47830  53.0542 324.7470 0002149  45.2056 314.9107 15.06419275 93027"},{"ELEMENT_SET_NO":"999","OBJECT_TYPE":"PAYLOAD","OBJECT_ID":"2021-018AW","APOAPSIS":"548.465","ARG_OF_PERICENTER":"45.9317","OBJECT_NAME":"STARLINK-2420","CLASSIFICATION_TYPE":"U","EPOCH":"2022-11-08T22:26:15.697824","SITE":"AFETR","RCS_SIZE":"LARGE","GP_ID":"217200461","FILE":"3649076","TLE_LINE1":"1 47831U 21018AW  22312.93490391  .00005874  00000-0  41269-3 0  9992","REV_AT_EPOCH":"9346","INCLINATION":"53.0531","TLE_LINE2":"2 47831  53.0531 298.8448 0001909  45.9317 314.1829 15.06423018 93463","MEAN_MOTION_DDOT":"0.0000000000000","TIME_SYSTEM":"UTC","SEMIMAJOR_AXIS":"6925.278","MEAN_ELEMENT_THEORY":"SGP4","EPHEMERIS_TYPE":"0","BSTAR":"0.00041269000000","PERIOD":"95.591","PERIAPSIS":"545.821","NORAD_CAT_ID":"47831","RA_OF_ASC_NODE":"298.8448","LAUNCH_DATE":"2021-03-11","MEAN_MOTION":"15.06423018","MEAN_MOTION_DOT":"0.00005874","CENTER_NAME":"EARTH","REF_FRAME":"TEME","COUNTRY_CODE":"US","DECAY_DATE":null,"ECCENTRICITY":"0.00019090","MEAN_ANOMALY":"314.1829"},{"ELEMENT_SET_NO":"999","OBJECT_TYPE":"PAYLOAD","OBJECT_ID":"2021-018AX","APOAPSIS":"548.819","ARG_OF_PERICENTER":"39.1742","OBJECT_NAME":"STARLINK-2422","EPOCH":"2022-11-08T10:14:28.199328","CLASSIFICATION_TYPE":"U","SITE":"AFETR","RCS_SIZE":"LARGE","GP_ID":"217169426","FILE":"3648805","REV_AT_EPOCH":"9312","TLE_LINE1":"1 47832U 21018AX  22312.42671527  .00002114  00000-0  16075-3 0  9990","INCLINATION":"53.0559","TLE_LINE2":"2 47832  53.0559 316.1314 0002334  39.1742 320.9415 15.06403485 93125","MEAN_MOTION_DDOT":"0.0000000000000","SEMIMAJOR_AXIS":"6925.338","TIME_SYSTEM":"UTC","MEAN_ELEMENT_THEORY":"SGP4","BSTAR":"0.00016075000000","EPHEMERIS_TYPE":"0","PERIOD":"95.592","PERIAPSIS":"545.587","NORAD_CAT_ID":"47832","RA_OF_ASC_NODE":"316.1314","LAUNCH_DATE":"2021-03-11","MEAN_MOTION":"15.06403485","MEAN_MOTION_DOT":"0.00002114","CENTER_NAME":"EARTH","REF_FRAME":"TEME","DECAY_DATE":null,"COUNTRY_CODE":"US","ECCENTRICITY":"0.00023340","MEAN_ANOMALY":"320.9415"},{"OBJECT_ID":"2021-018AY","APOAPSIS":"548.780","ARG_OF_PERICENTER":"38.8353","OBJECT_TYPE":"PAYLOAD","ELEMENT_SET_NO":"999","RCS_SIZE":"LARGE","EPOCH":"2022-11-08T17:13:46.251552","OBJECT_NAME":"STARLINK-2423","CLASSIFICATION_TYPE":"U","SITE":"AFETR","GP_ID":"217200969","FILE":"3649076","TLE_LINE1":"1 47833U 21018AY  22312.71789643  .00003272  00000-0  23838-3 0  9993","REV_AT_EPOCH":"9322","INCLINATION":"53.0545","TLE_LINE2":"2 47833  53.0545 314.8152 0002323  38.8353 321.2802 15.06413792 93225","MEAN_ELEMENT_THEORY":"SGP4","BSTAR":"0.00023838000000","EPHEMERIS_TYPE":"0","PERIOD":"95.591","MEAN_MOTION_DDOT":"0.0000000000000","SEMIMAJOR_AXIS":"6925.306","TIME_SYSTEM":"UTC","MEAN_MOTION":"15.06413792","MEAN_MOTION_DOT":"0.00003272","PERIAPSIS":"545.563","NORAD_CAT_ID":"47833","RA_OF_ASC_NODE":"314.8152","LAUNCH_DATE":"2021-03-11","CENTER_NAME":"EARTH","REF_FRAME":"TEME","COUNTRY_CODE":"US","DECAY_DATE":null,"ECCENTRICITY":"0.00023230","MEAN_ANOMALY":"321.2802"},{"PERIOD":"95.591","EPHEMERIS_TYPE":"0","BSTAR":"0.00016880000000","MEAN_ELEMENT_THEORY":"SGP4","SEMIMAJOR_AXIS":"6925.299","TIME_SYSTEM":"UTC","MEAN_MOTION_DDOT":"0.0000000000000","MEAN_MOTION_DOT":"0.00002234","MEAN_MOTION":"15.06416044","LAUNCH_DATE":"2021-03-11","RA_OF_ASC_NODE":"314.7712","NORAD_CAT_ID":"47834","PERIAPSIS":"545.652","REF_FRAME":"TEME","CENTER_NAME":"EARTH","MEAN_ANOMALY":"309.0528","ECCENTRICITY":"0.00021840","DECAY_DATE":null,"COUNTRY_CODE":"US","ARG_OF_PERICENTER":"51.0656","APOAPSIS":"548.677","OBJECT_ID":"2021-018AZ","ELEMENT_SET_NO":"999","OBJECT_TYPE":"PAYLOAD","RCS_SIZE":"LARGE","SITE":"AFETR","OBJECT_NAME":"STARLINK-2424","CLASSIFICATION_TYPE":"U","EPOCH":"2022-11-08T17:29:41.688672","INCLINATION":"53.0568","TLE_LINE1":"1 47834U 21018AZ  22312.72895473  .00002234  00000-0  16880-3 0  9990","REV_AT_EPOCH":"9322","FILE":"3649076","GP_ID":"217201696","TLE_LINE2":"2 47834  53.0568 314.7712 0002184  51.0656 309.0528 15.06416044 93222"}];
